1 31789U 07028A   22346.20670225  .00007107  00000+0  31047-3 0  9998
2 31789  64.4959 250.3384 0059020 288.0899  71.3802 15.21334127852928
1 31792U 07029A   22347.43371015 -.00000188  00000+0 -75664-4 0  9992
2 31792  70.9479 164.4945 0007921 151.9484 208.2065 14.12593403797204
1 31793U 07029B   22346.52785616  .00000051  00000+0  51406-4 0  9993
2 31793  70.9752 138.7629 0002728 282.7053 141.0434 14.14501813798130
1 33504U 09003A   22347.40709653  .00003632  00000+0  17544-3 0  9996
2 33504  82.4418  37.2888 0018190  14.9823 345.1945 15.18200333765236
1 37731U 11030B   22346.90471345  .00000836  00000+0  12738-3 0  9996
2 37731  97.6919 324.5124 0057575 229.4861 152.2266 14.75331175615368
1 38341U 12025E   22347.38249943  .00001423  00000+0  16942-3 0  9993
2 38341  98.4795 214.3506 0053938 189.7958 170.2208 14.85142468572286
1 39271U 13055G   22347.12937983  .00028052  00000+0  57399-3 0  9998
2 39271  80.9548 357.2715 0493570 284.4395  70.2537 14.71397773482963
1 39358U 13057A   22347.35211326  .00001618  00000+0  18571-3 0  9995
2 39358  74.9750 252.7324 0017278  91.5675 268.7501 14.86453474495570
1 39364U 13059B   22347.09050974  .00011381  00000+0  33092-3 0  9998
2 39364  97.1353  34.4671 0041013  52.7347 307.7626 15.34746983507617
1 39679U 14021B   22346.88643430  .00003934  00000+0  19225-3 0  9995
2 39679  51.6126 204.2499 0161081 219.1698 139.7526 15.10000949476065
1 39766U 14029A   22347.49668722 -.00000247  00000+0 -26233-4 0  9993
2 39766  97.9232  82.0641 0001380  94.6931 265.4463 14.79467388462100
1 40306U 14071B   22347.40182233  .00187180  14595-4  67459-3 0  9994
2 40306  97.4271 332.4615 0008974  71.5405 288.6842 15.88618121455035
1 40354U 14084B   22347.33123544  .00011150  00000+0  22076-3 0  9993
2 40354  74.7371 302.4023 0030680  27.1278 333.1532 15.46573033448626
1 41038U 15069A   22347.39805149  .00000475  00000+0  68198-4 0  9995
2 41038  98.0610 348.4969 0000522 126.7961 233.3310 14.81011732380774
1 41337U 16012A   22347.38201836  .00001774  00000+0  13284-3 0  9996
2 41337  31.0063   3.5581 0011804  57.7827 302.3952 14.99922763374005
1 42758U 17034A   22347.49491531  .00004115  00000+0  25071-3 0  9993
2 42758  43.0163  82.9162 0010987 322.8928  99.9830 15.11599690303260
1 43521U 18054D   22346.39856996  .00006354  00000+0  31217-3 0  9999
2 43521  35.1545 334.9626 0077763 220.2415 139.2525 15.14732926246660
1 43600U 18066A   22347.28054426  .00099072  52299-5  38500-3 0  9991
2 43600  96.7319 350.3278 0014578 101.1812 259.1100 15.87023089249485
1 43641U 18076A   22347.51581398 -.00000630  00000+0 -72601-4 0  9998
2 43641  97.8839 171.6604 0001473  96.9123 263.2302 14.82147865226255
1 43682U 18084L   22346.47668363  .00004361  00000+0  29689-3 0  9994
2 43682  98.8967 336.6029 0054552  39.4972 321.0207 15.05759362226093
1 46265U 20059A   22347.47945611  .00000482  00000+0  67097-4 0  9990
2 46265  97.8845 170.6862 0001433  83.9831 276.1556 14.82163354123644
1 48274U 21035A   22347.34823405  .00021681  00000+0  26699-3 0  9995
2 48274  41.4747 208.1191 0004178  90.6520  78.4117 15.59697973 92772
1 51842U 22019U   22347.53055584  .00010601  00000+0  38619-3 0  9994
2 51842  97.5458  66.6301 0063204 280.1311 175.3153 15.26477763 44071
1 52260U 21092C   22347.26863344  .00076296  00000+0  34612-3 0  9991
2 52260  41.4745 185.2658 0013343 327.6522  32.3505 15.82768631 37575
